STARLINK-31959          
1 59925U 24106D   24307.13078516 -.00002344  00000+0 -48834-4 0  9995
2 59925  43.0008 248.8263 0002394 283.7069  76.3520 15.40705566 25024
STARLINK-31957          
1 59926U 24106E   24308.18644149  .00007330  00000+0  18256-3 0  9995
2 59926  43.0070 243.8710 0002305 262.5426  97.5169 15.40703788 25219
STARLINK-31968          
1 59927U 24106F   24308.18199405 -.00003185  00000+0 -69060-4 0  9992
2 59927  42.9993 243.8372 0002431 279.0098  81.0484 15.40669786 25233
STARLINK-31970          
1 59928U 24106G   24308.10146108  .00066831  00000+0  15930-2 0  9997
2 59928  43.0012 244.0877 0002182 276.9877  83.0732 15.40701909 25215
STARLINK-31932          
1 59929U 24106H   24308.16983598 -.00006795  00000+0 -15534-3 0  9992
2 59929  42.9999 240.1733 0002313 263.9605  96.0987 15.40733323 25218
STARLINK-31956          
1 59930U 24106J   24308.10595412  .00004282  00000+0  10980-3 0  9999
2 59930  43.0012 244.1227 0001637 283.7006  76.3668 15.40672996 25162
STARLINK-31960          
1 59931U 24106K   24308.11490826 -.00007144  00000+0 -16399-3 0  9996
2 59931  43.0047 244.1860 0003277 273.5131  86.5351 15.40677741 25167
STARLINK-31432          
1 59932U 24106L   24308.21543402  .00005803  00000+0  14610-3 0  9999
2 59932  43.0001 243.2281 0002409 236.8461 123.2164 15.40694489 25179
STARLINK-31853          
1 59933U 24106M   24308.23335038  .00003291  00000+0  85898-4 0  9992
2 59933  42.9972 243.3600 0000832 292.4180  67.6589 15.40734784 25170
STARLINK-31971          
1 59934U 24106N   24308.22108682  .00007270  00000+0  18106-3 0  9993
2 59934  43.0006 238.7861 0000811 122.1775 237.9160 15.40711834 25071
STARLINK-31962          
1 59936U 24106Q   24308.21058063 -.00000263  00000+0  97369-6 0  9998
2 59936  43.0023 243.1815 0001929 266.4210  93.6426 15.40718626 25188
STARLINK-31879          
1 59937U 24106R   24308.13232618 -.00002097  00000+0 -42923-4 0  9992
2 59937  43.0026 243.4550 0000316 244.6722 115.4102 15.40722915 25221
STARLINK-31876          
1 59938U 24106S   24308.23783479  .00021268  00000+0  51424-3 0  9994
2 59938  43.0016 243.3916 0000178  70.9636 289.1240 15.40743502 24053
STARLINK-31955          
1 59939U 24106T   24308.17525573  .00145923  00000+0  34268-2 0  9998
2 59939  42.9994 243.7842 0002099 273.4196  86.6421 15.40763806 25224
STARLINK-31946          
1 59940U 24106U   24308.20162702  .00005949  00000+0  14951-3 0  9996
2 59940  43.0030 243.1126 0001190 282.9895  77.0829 15.40713186 25222
STARLINK-31948          
1 59941U 24106V   24308.18328957  .00006206  00000+0  15563-3 0  9997
2 59941  43.0047 240.2738 0001790 291.7711  68.2955 15.40715895 25219
STARLINK-31900          
1 59942U 24106W   24308.24899861  .00007229  00000+0  17982-3 0  9995
2 59942  43.0021 243.4776 0002008 269.4784  90.5843 15.40757646 25184
STARLINK-31973          
1 59943U 24106X   24308.02319444  .00001898  00000+0  52689-4 0  9996
2 59943  43.0025 244.3583 0001762 269.3719  90.6936 15.40705122 25140
STARLINK-31966          
1 59944U 24106Y   24308.22439303  .00012124  00000+0  29681-3 0  9995
2 59944  43.0011 243.2882 0001529 266.5734  93.4948 15.40723786 25233
STARLINK-11145 [DTC]    
1 59945U 24107A   24308.30199513  .00001213  00000+0  14862-4 0  9995
2 59945  53.1564 153.9456 0000936 155.6731 204.4331 15.69716677 24971
STARLINK-11121 [DTC]    
1 59946U 24107B   24308.00002315 -.00103644  00000+0 -63537-3 0  9991
2 59946  53.1567 155.1104 0000396  25.7090 227.2243 15.76787334 24986
STARLINK-11113 [DTC]    
1 59947U 24107C   24308.30678524 -.00005896  00000+0 -43859-4 0  9992
2 59947  53.1557 153.2358 0000176 121.0542 239.0493 15.69707592 24971
STARLINK-11123 [DTC]    
1 59948U 24107D   24307.84650412  .00011283  00000+0  97773-4 0  9996
2 59948  53.1561 156.0758 0001131 104.6978 255.4165 15.69731343 24951
STARLINK-11138 [DTC]    
1 59949U 24107E   24307.91667824  .00014635  00000+0  12530-3 0  9991
2 59949  53.1559 155.5019 0001003  80.7490  67.0894 15.69737695 24967
STARLINK-11130 [DTC]    
1 59950U 24107F   24308.28727734  .00002054  00000+0  21799-4 0  9991
2 59950  53.1563 153.8463 0001272 112.6323 247.4829 15.69718440 24976
STARLINK-11126 [DTC]    
1 59951U 24107G   24308.58334491 -.00239623  00000+0 -12435-2 0  9990
2 59951  53.1315 143.9193 0000635  65.0093 299.8524 15.80889667 25178
STARLINK-11124 [DTC]    
1 59952U 24107H   24308.27744187  .00008545  00000+0  75187-4 0  9994
2 59952  53.1565 153.7797 0001737  63.7530 296.3666 15.69752318 25033
STARLINK-11143 [DTC]    
1 59953U 24107J   24308.01298255  .00003390  00000+0  32819-4 0  9995
2 59953  53.1568 154.9721 0000896 118.0856 242.0252 15.69712767 24938
STARLINK-11133 [DTC]    
1 59954U 24107K   24307.88069784  .00012051  00000+0  10398-3 0  9994
2 59954  53.1581 155.5692 0000952  79.9698 280.1427 15.69756838 24901
STARLINK-11144 [DTC]    
1 59955U 24107L   24308.00316435  .00007503  00000+0  66636-4 0  9991
2 59955  53.1566 154.9124 0001131  40.4180 319.6921 15.69745045 24980
STARLINK-11134 [DTC]    
1 59956U 24107M   24307.87091708  .00011837  00000+0  10228-3 0  9999
2 59956  53.1558 155.5033 0000937  85.7004 274.4121 15.69742478 24839
STARLINK-11142 [DTC]    
1 59957U 24107N   24307.86602075  .00003867  00000+0  36744-4 0  9990
2 59957  53.1564 155.4711 0000761  98.0113 262.0991 15.69721535 24910
STARLINK-31995          
1 59958U 24107P   24307.91159410 -.00000861  00000+0 -16949-4 0  9995
2 59958  53.1586 189.7470 0000486  60.8957 299.2093 15.30205464 23307
STARLINK-31989          
1 59959U 24107Q   24307.90526777  .00002230  00000+0  87388-4 0  9994
2 59959  53.1603 189.7125 0000672  83.1580 276.9497 15.30201651 24509
STARLINK-31856          
1 59960U 24107R   24307.97375696  .00009975  00000+0  34898-3 0  9995
2 59960  53.1594 189.4291 0001398  71.2494 288.8658 15.30151549 24511
STARLINK-31993          
1 59961U 24107S   24307.91793283 -.00001939  00000+0 -53377-4 0  9994
2 59961  53.1600 189.7821 0000856  87.6659 272.4440 15.30202380 24444
STARLINK-31980          
1 59962U 24107T   24307.99062438  .00003544  00000+0  13169-3 0  9990
2 59962  53.1605 189.5229 0001052 100.9198 259.1921 15.30209929 24527
STARLINK-31991          
1 59963U 24107U   24307.98005493  .00007003  00000+0  24813-3 0  9990
2 59963  53.1603 189.4643 0000449  94.9540 265.1512 15.30225532 24528
STARLINK-31979          
1 59964U 24107V   24307.98746599  .00006347  00000+0  22619-3 0  9992
2 59964  53.1592 189.5067 0001037  88.4897 271.6222 15.30206526 24403
STARLINK-31978          
1 60016U 24111A   24307.88306937  .00000336  00000+0  21171-4 0  9999
2 60016  53.1602 200.8788 0000667 106.3850 253.7226 15.34230257 23629
STARLINK-31987          
1 60017U 24111B   24308.12501146  .00090952  00000+0  26745-2 0  9990
2 60017  53.1583 199.5437 0001126  59.7859 300.3255 15.34353456 23723
STARLINK-31984          
1 60018U 24111C   24308.11568012  .00111278  00000+0  32682-2 0  9997
2 60018  53.1588 199.4831 0000694 124.1332 235.9736 15.34282762 23614
STARLINK-31986          
1 60019U 24111D   24307.97142149  .00030540  00000+0  91604-3 0  9992
2 60019  53.1601 200.0051 0001004  76.9824 283.1290 15.34237049 23753
STARLINK-31883          
1 60020U 24111E   24307.99971656  .00065159  00000+0  19325-2 0  9992
2 60020  53.1573 200.1848 0000548  70.1523 289.9539 15.34243139 23692
STARLINK-31967          
1 60021U 24111F   24307.96707365  .00002273  00000+0  78716-4 0  9993
2 60021  53.1616 199.9791 0000873  53.1957 306.9126 15.34254903 23778
STARLINK-31982          
1 60022U 24111G   24308.40921556  .00006967  00000+0  21835-3 0  9997
2 60022  53.1591 198.4743 0000997  92.8815 267.2301 15.34221287 23810
STARLINK-31992          
1 60023U 24111H   24308.43207809  .00005535  00000+0  17575-3 0  9995
2 60023  53.1595 197.9008 0001510 101.7675 258.3497 15.34233993 23824
STARLINK-31990          
1 60024U 24111J   24307.87408832  .00002402  00000+0  82662-4 0  9992
2 60024  53.1599 200.8226 0000669  91.2999 268.8080 15.34212167 23724
STARLINK-31864          
1 60025U 24111K   24308.42883978  .00024094  00000+0  82253-3 0  9999
2 60025  53.1607 197.8064 0001108  88.9015 271.2112 15.30218202 23817
STARLINK-31939          
1 60026U 24111L   24308.12067534  .00159792  00000+0  46577-2 0  9991
2 60026  53.1587 199.5147 0000753  55.2039 304.9034 15.34284246 23760
STARLINK-32012          
1 60027U 24111M   24307.98736658  .00036900  00000+0  12514-2 0  9994
2 60027  53.1584 199.3902 0001041  84.2371 275.8748 15.30210408 23759
STARLINK-32008          
1 60028U 24111N   24308.12221587  .00010777  00000+0  37524-3 0  9995
2 60028  53.1581 198.8074 0000856  75.3276 284.7819 15.30219520 23773
STARLINK-32006          
1 60029U 24111P   24307.87840944  .00002047  00000+0  72060-4 0  9997
2 60029  53.1597 200.8470 0000359  78.6769 281.4274 15.34223840 23724
STARLINK-32011          
1 60030U 24111Q   24308.41352812  .00020141  00000+0  60797-3 0  9990
2 60030  53.1594 198.5004 0001545  87.4774 272.6405 15.34278235 23806
STARLINK-31878          
1 60031U 24111R   24307.98444196 -.00005451  00000+0 -15645-3 0  9990
2 60031  53.1287 148.1975 0001325  65.1267 294.9872 15.33165315 24225
STARLINK-32017          
1 60032U 24111S   24308.12032895  .00002179  00000+0  75964-4 0  9990
2 60032  53.1602 199.5061 0000965  52.1690 307.9400 15.34244360 23767
STARLINK-31998          
1 60033U 24111T   24307.87362282  .00004400  00000+0  16059-3 0  9996
2 60033  53.1571 200.1042 0000839  72.5153 287.5940 15.30199771 23641
STARLINK-32005          
1 60034U 24111U   24307.99505271  .00151477  00000+0  44256-2 0  9993
2 60034  53.1581 200.1499 0000571  47.5857 312.5194 15.34249912 23631
STARLINK-31981          
1 60035U 24111V   24308.43706047  .00001779  00000+0  64113-4 0  9993
2 60035  53.1605 197.9281 0001037  65.9127 294.1984 15.34225971 23746
